CUTE-1 (CO-55)          
1 27844U 03031E   26139.44604698  .00000173  00000+0  93886-4 0  9992
2 27844  98.6745 148.3664 0008279 268.8365  91.1866 14.24316138187585
CUBESAT XI-IV (CO-57)   
1 27848U 03031J   26139.49040125  .00000134  00000+0  77858-4 0  9998
2 27848  98.6775 148.1459 0008254 290.1420  69.8871 14.23603827187294
CUBESAT XI-V            
1 28895U 05043F   26139.38868412  .00000744  00000+0  12526-3 0  9998
2 28895  98.2953 294.4126 0012867 299.2337  60.7582 14.72545772 97511
CUTE-1.7+APD II (CO-65) 
1 32785U 08021C   26139.47572426  .00002945  00000+0  18955-3 0  9994
2 32785  97.8271 120.3071 0010544 120.7534 239.4734 15.09148588980863
CANX-2                  
1 32790U 08021H   26138.44559663  .00001678  00000+0  12145-3 0  9991
2 32790  97.8621 117.6550 0011514 137.7182 222.4934 15.05378382980333
SEEDS II (CO-66)        
1 32791U 08021J   26139.46582154  .00012886  00000+0  42370-3 0  9992
2 32791  97.7524 136.0178 0004739  71.6173 288.5582 15.31671371982891
SWISSCUBE               
1 35932U 09051B   26139.50117800  .00000600  00000+0  12829-3 0  9990
2 35932  98.4054  46.8886 0005772 311.4963  48.5742 14.62419114884960
BEESAT-1                
1 35933U 09051C   26139.22195897  .00000496  00000+0  10960-3 0  9999
2 35933  98.3983  46.3002 0004593 331.8843  28.2109 14.61667178884954
ITUPSAT1                
1 35935U 09051E   26139.18753492  .00000454  00000+0  10393-3 0  9991
2 35935  98.4068  45.4878 0006997 339.3599  20.7317 14.60391532884509
TISAT 1                 
1 36799U 10035E   26139.29608968  .00011916  00000+0  40672-3 0  9991
2 36799  98.0708  83.3131 0002950  41.6426 318.5037 15.30501637863281
AEROCUBE 4.5A           
1 38767U 12048K   26139.41851617  .00123628  00000+0  66268-3 0  9992
2 38767  64.6283 130.7793 0018413 216.0663 143.9250 15.79455087368094
STRAND-1                
1 39090U 13009E   26139.44128744  .00000149  00000+0  64551-4 0  9997
2 39090  98.3916 320.3846 0007820 323.8978  36.1680 14.37144397692938
BRITE-AUSTRIA           
1 39091U 13009F   26139.44181182  .00000094  00000+0  46637-4 0  9997
2 39091  98.3987 319.5903 0009532 332.4017  27.6663 14.36529418692928
NEE-01 PEGASO           
1 39151U 13018B   26139.32407350  .00001348  00000+0  13381-3 0  9991
2 39151  98.1186 282.5303 0011364 257.4653 102.5294 14.93499567706399
POPACS 2                
1 39269U 13055E   26139.51762299  .00010414  00000+0  17906-3 0  9990
2 39269  80.9908 176.9964 0418528 286.0190  69.5314 14.90534506658948
POPACS 3                
1 39270U 13055F   26139.32049307  .00011564  00000+0  27474-3 0  9997
2 39270  81.0018 260.4647 0554741 157.7762 204.8535 14.55394747634358
ZACUBE-1 (TSHEPISOSAT)  
1 39417U 13066B   26139.34344439  .00002692  00000+0  21250-3 0  9996
2 39417  97.8124 101.5242 0041041 349.7559  10.2824 15.00944332676405
WNISAT-1                
1 39423U 13066H   26139.38808642  .00000268  00000+0  58055-4 0  9999
2 39423  97.7167 290.5942 0162237 323.0195  35.9908 14.58022052662530
TRITON-1                
1 39427U 13066M   26139.52624910  .00001840  00000+0  22561-3 0  9992
2 39427  97.8271  49.9861 0089465 328.8220  30.7703 14.81571563669849
GOMX-1                  
1 39430U 13066Q   26139.51715784  .00001252  00000+0  19416-3 0  9997
2 39430  97.6496 341.7882 0129025 168.9258 191.4838 14.69333538665706
CUBEBUG-2 (LO-74)       
1 39440U 13066AA  26139.39062852  .00002079  00000+0  19648-3 0  9990
2 39440  97.8895  88.2566 0059273 122.0398 238.6598 14.93513451672691
NEE-02 KRYSAOR          
1 39441U 13066AB  26139.26541490  .00000950  00000+0  10953-3 0  9993
2 39441  97.8886  78.6919 0066597 163.2693 197.0741 14.86495337671904
FUNCUBE-1 (AO-73)       
1 39444U 13066AE  26138.48756626  .00003751  00000+0  23785-3 0  9997
2 39444  97.8264 109.3260 0034896 306.8242  52.9786 15.09070822675186
UWE-3                   
1 39446U 13066AG  26138.60277945  .00002656  00000+0  23180-3 0  9997
2 39446  97.8682  94.4880 0050461  59.2487 301.3689 14.96745846673158
BRITE-CA1 (TORONTO)     
1 40020U 14033L   26139.29699206  .00000375  00000+0  64130-4 0  9993
2 40020  97.9699 268.7648 0078807  10.4510 349.8313 14.72633047637968
DUCHIFAT-1              
1 40021U 14033M   26139.12335227  .00061236  00000+0  78320-3 0  9994
2 40021  98.0491 194.3373 0006206 171.2568 188.8795 15.59011194651211
NANOSATC-BR1            
1 40024U 14033Q   26139.05468743  .00010544  00000+0  36092-3 0  9995
2 40024  98.0737 168.8823 0001647 285.8827  74.2230 15.30447318649520
QB50P1                  
1 40025U 14033R   26139.47629546  .00005185  00000+0  26032-3 0  9990
2 40025  98.0974 148.6201 0007692 335.1999  24.8862 15.17769018648671
QB50P2                  
1 40032U 14033Y   26139.43442883  .00003647  00000+0  20069-3 0  9996
2 40032  98.0754 134.5356 0005643 274.4417  85.6169 15.14749853648312
PERSEUS-M2              
1 40037U 14033AD  26139.49252743  .00001294  00000+0  12246-3 0  9995
2 40037  97.9964  89.4542 0013245  40.7357 319.4851 14.95416144646492
